STARLINK-1391_new
1 15750C 20038W   21326.16825823  .00007569  00000-0  50731-3 0  3263
2 15750  53.0541  57.9978 0001434  60.8184 154.5349 15.06379610    15
STARLINK-1391_old
1 25750C 20038W   21325.12308835  .00005902  00000-0  39542-3 0  3252
2 25750  53.0539  62.6897 0001291  61.3275 242.8871 15.06393891    11
